OBJECT_NAME,OBJECT_ID,EPOCH,MEAN_MOTION,ECCENTRICITY,INCLINATION,RA_OF_ASC_NODE,ARG_OF_PERICENTER,MEAN_ANOMALY,EPHEMERIS_TYPE,CLASSIFICATION_TYPE,NORAD_CAT_ID,ELEMENT_SET_NO,REV_AT_EPOCH,BSTAR,MEAN_MOTION_DOT,MEAN_MOTION_DDOT
HYLAS 2,2012-043B,2026-06-10T06:06:05.147136,1.00270357,.00026801,2.4084,81.1501,22.0816,174.3388,0,U,38741,999,5070,0,-.24E-5,0
INTELSAT 21 (IS-21),2012-045A,2026-06-10T06:10:19.740288,1.00267022,.00016769,0.0227,283.3658,177.3275,192.4944,0,U,38749,999,5045,0,-.267E-5,0
ASTRA 2F,2012-051A,2026-06-10T04:52:10.968672,1.00280038,.00018737,0.0802,260.4428,267.9587,191.4223,0,U,38778,999,4106,0,.168E-5,0
GSAT-10,2012-051B,2026-06-10T03:25:12.504576,1.00271173,.00078878,0.0154,290.6172,159.5178,302.7078,0,U,38779,999,5002,0,-.148E-5,0
INTELSAT 23 (IS-23),2012-057A,2026-06-10T06:11:42.108000,1.00269083,.00000889,0.0174,299.9383,129.2663,229.3544,0,U,38867,999,4988,0,-.267E-5,0
BEIDOU-2 G6,2012-059A,2026-06-09T22:04:53.590080,1.00274032,.0009998,4.4018,73.6015,325.1215,274.7988,0,U,38953,999,4983,0,-.16E-5,0
LUCH-5B,2012-061A,2026-06-09T23:31:34.999680,1.00273458,.00018473,10.4653,49.9507,137.3394,47.6645,0,U,38977,999,4953,0,-.125E-5,0
YAMAL 300K,2012-061B,2026-06-09T14:48:06.103584,1.00271710,.00013345,0.0118,275.2884,298.8556,88.8279,0,U,38978,999,4955,0,.88E-6,0
STAR ONE C3,2012-062A,2026-06-10T03:09:38.710656,1.00273063,.00022859,0.0110,32.7245,57.6840,140.5011,0,U,38991,999,4969,0,-.232E-5,0
EUTELSAT 21B,2012-062B,2026-06-10T06:33:02.562912,1.00271911,.00030456,0.0654,357.4886,78.7838,302.1925,0,U,38992,999,4975,0,.147E-5,0
ECHOSTAR 16,2012-065A,2026-06-10T06:09:19.834848,1.00269815,.00018268,0.0182,346.8697,100.4743,202.1158,0,U,39008,999,4957,0,-.264E-5,0
ZHONGXING-12,2012-067A,2026-06-09T06:54:20.405952,1.00270624,.000326,0.0507,97.0140,338.8292,12.9096,0,U,39017,999,4943,0,-.19E-5,0
EUTELSAT 70B,2012-069A,2026-06-10T05:04:17.308416,1.00271835,.0003989,0.0613,0.5736,71.1858,333.3732,0,U,39020,999,4943,0,-.26E-6,0
YAMAL 402,2012-070A,2026-06-10T04:59:47.738688,1.00272221,.00037259,1.2462,84.2457,351.6124,312.5634,0,U,39022,999,4932,0,.103E-5,0
SKYNET 5D,2012-075A,2026-06-10T04:59:17.787264,1.00271213,.00037007,0.0714,334.7349,116.1394,295.3167,0,U,39034,999,4908,0,.117E-5,0
MEXSAT 3,2012-075B,2026-06-09T23:03:30.330144,1.00268979,.00012456,0.0348,94.8449,339.0902,55.4602,0,U,39035,999,698,0,-.8E-7,0
TDRS 11,2013-004A,2026-06-10T07:56:55.693824,1.00267064,.00056345,3.5111,31.1530,17.1454,155.2902,0,U,39070,999,4662,0,.94E-6,0
AMAZONAS 3,2013-006A,2026-06-10T06:09:27.324000,1.00267857,.00021913,0.0419,240.7249,232.6613,176.5807,0,U,39078,999,4484,0,-.265E-5,0
AZERSPACE 1,2013-006B,2026-06-10T06:39:54.404064,1.00272698,.00014078,0.0171,320.4817,152.9766,291.1546,0,U,39079,999,4873,0,.151E-5,0
SBIRS GEO-2 (USA 241),2013-011A,2026-06-10T01:04:41.488032,1.00271256,.00021646,4.4750,52.5076,17.8991,154.3676,0,U,39120,999,4846,0,-.271E-5,0
EUTELSAT 117 WEST A,2013-012A,2026-06-09T07:41:39.636096,1.00272054,.00027506,0.0468,66.3574,16.0687,173.8873,0,U,39122,999,4835,0,.4E-7,0
ANIK G1,2013-014A,2026-06-10T05:56:10.887936,1.00271317,.00016769,0.0174,312.6430,119.0027,168.7088,0,U,39127,999,4818,0,-.57E-6,0
ZHONGXING-11,2013-020A,2026-06-10T01:46:41.240352,1.00272828,.00024038,0.0373,50.9144,22.9050,309.2169,0,U,39157,999,4782,0,-.273E-5,0
EUTELSAT 7B,2013-022A,2026-06-10T06:28:40.480608,1.00271512,.00048639,0.0704,14.5721,21.2522,326.9713,0,U,39163,999,4787,0,.65E-6,0
WGS F5 (USA 243),2013-024A,2026-06-10T06:11:49.596288,1.00270514,.00000276,0.0192,317.8286,288.9878,52.2610,0,U,39168,999,4710,0,-.267E-5,0
SES-6,2013-026A,2026-06-10T06:15:19.260576,1.00271889,.00025802,0.0189,330.4515,123.5508,217.9556,0,U,39172,999,4765,0,-.244E-5,0
IRNSS-1A,2013-034A,2026-05-22T20:37:38.469792,1.00280263,.00166187,35.6649,64.2334,185.3754,355.4646,0,U,39199,999,4711,0,.59E-6,0
MUOS-2,2013-036A,2026-06-09T14:42:25.293600,1.00271899,.00506832,4.9809,45.5245,177.8763,67.1233,0,U,39206,999,4711,0,.2E-7,0
ALPHASAT,2013-038A,2026-06-09T01:28:43.025376,1.00271496,.00019156,2.9977,1.3684,86.6359,216.4790,0,U,39215,999,4393,0,.149E-5,0
INSAT-3D,2013-038B,2026-06-10T07:03:48.892896,1.00272755,.00007033,1.9072,82.6267,315.3416,96.1628,0,U,39216,999,4701,0,-.322E-5,0
WGS F6 (USA 244),2013-041A,2026-06-10T00:40:21.321984,1.00269941,.00001769,0.0029,70.8857,220.3287,202.0978,0,U,39222,999,4599,0,.106E-5,0
ES'HAIL 1,2013-044A,2026-06-10T06:34:02.466624,1.00271544,.0002229,0.0498,8.4886,67.2435,306.8838,0,U,39233,999,4655,0,.161E-5,0
