HYLAS 2                 
1 38741U 12043B   26161.25422624 -.00000240  00000+0  00000+0 0  9991
2 38741   2.4084  81.1501 0002680  22.0816 174.3388  1.00270357 50705
INTELSAT 21 (IS-21)     
1 38749U 12045A   26161.25717292 -.00000267  00000+0  00000+0 0  9998
2 38749   0.0227 283.3658 0001676 177.3275 192.4944  1.00267022 50458
ASTRA 2F                
1 38778U 12051A   26161.20290473  .00000168  00000+0  00000+0 0  9998
2 38778   0.0802 260.4428 0001873 267.9587 191.4223  1.00280038 41069
GSAT-10                 
1 38779U 12051B   26161.14250584 -.00000148  00000+0  00000+0 0  9990
2 38779   0.0154 290.6172 0007887 159.5178 302.7078  1.00271173 50025
INTELSAT 23 (IS-23)     
1 38867U 12057A   26161.25812625 -.00000267  00000+0  00000+0 0  9998
2 38867   0.0174 299.9383 0000088 129.2663 229.3544  1.00269083 49881
BEIDOU-2 G6             
1 38953U 12059A   26160.92006470 -.00000160  00000+0  00000+0 0  9994
2 38953   4.4018  73.6015 0009998 325.1215 274.7988  1.00274032 49831
LUCH-5B                 
1 38977U 12061A   26160.98026620 -.00000125  00000+0  00000+0 0  9999
2 38977  10.4653  49.9507 0001847 137.3394  47.6645  1.00273458 49532
YAMAL 300K              
1 38978U 12061B   26160.61673731  .00000088  00000+0  00000+0 0  9998
2 38978   0.0118 275.2884 0001334 298.8556  88.8279  1.00271710 49551
STAR ONE C3             
1 38991U 12062A   26161.13169804 -.00000232  00000+0  00000+0 0  9995
2 38991   0.0110  32.7245 0002285  57.6840 140.5011  1.00273063 49696
EUTELSAT 21B            
1 38992U 12062B   26161.27294633  .00000147  00000+0  00000+0 0  9994
2 38992   0.0654 357.4886 0003045  78.7838 302.1925  1.00271911 49751
ECHOSTAR 16             
1 39008U 12065A   26161.25647957 -.00000264  00000+0  00000+0 0  9996
2 39008   0.0182 346.8697 0001826 100.4743 202.1158  1.00269815 49578
ZHONGXING-12            
1 39017U 12067A   26160.28773618 -.00000190  00000+0  00000+0 0  9992
2 39017   0.0507  97.0140 0003260 338.8292  12.9096  1.00270624 49430
EUTELSAT 70B            
1 39020U 12069A   26161.21131144 -.00000026  00000+0  00000+0 0  9992
2 39020   0.0613   0.5736 0003989  71.1858 333.3732  1.00271835 49437
YAMAL 402               
1 39022U 12070A   26161.20819142  .00000103  00000+0  00000+0 0  9991
2 39022   1.2462  84.2457 0003725 351.6124 312.5634  1.00272221 49321
SKYNET 5D               
1 39034U 12075A   26161.20784476  .00000117  00000+0  00000+0 0  9995
2 39034   0.0714 334.7349 0003700 116.1394 295.3167  1.00271213 49082
MEXSAT 3                
1 39035U 12075B   26160.96076771 -.00000008  00000+0  00000+0 0  9990
2 39035   0.0348  94.8449 0001245 339.0902  55.4602  1.00268979  6980
TDRS 11                 
1 39070U 13004A   26161.33120016  .00000094  00000+0  00000+0 0  9990
2 39070   3.5111  31.1530 0005634  17.1454 155.2902  1.00267064 46623
AMAZONAS 3              
1 39078U 13006A   26161.25656625 -.00000265  00000+0  00000+0 0  9992
2 39078   0.0419 240.7249 0002191 232.6613 176.5807  1.00267857 44847
AZERSPACE 1             
1 39079U 13006B   26161.27771301  .00000151  00000+0  00000+0 0  9997
2 39079   0.0171 320.4817 0001407 152.9766 291.1546  1.00272698 48737
SBIRS GEO-2 (USA 241)   
1 39120U 13011A   26161.04492463 -.00000271  00000+0  00000+0 0  9998
2 39120   4.4750  52.5076 0002164  17.8991 154.3676  1.00271256 48468
EUTELSAT 117 WEST A     
1 39122U 13012A   26160.32059764  .00000004  00000+0  00000+0 0  9997
2 39122   0.0468  66.3574 0002750  16.0687 173.8873  1.00272054 48358
ANIK G1                 
1 39127U 13014A   26161.24734824 -.00000057  00000+0  00000+0 0  9992
2 39127   0.0174 312.6430 0001676 119.0027 168.7088  1.00271317 48186
ZHONGXING-11            
1 39157U 13020A   26161.07408843 -.00000273  00000+0  00000+0 0  9992
2 39157   0.0373  50.9144 0002403  22.9050 309.2169  1.00272828 47821
EUTELSAT 7B             
1 39163U 13022A   26161.26991297  .00000065  00000+0  00000+0 0  9990
2 39163   0.0704  14.5721 0004863  21.2522 326.9713  1.00271512 47876
WGS F5 (USA 243)        
1 39168U 13024A   26161.25821292 -.00000267  00000+0  00000+0 0  9998
2 39168   0.0192 317.8286 0000027 288.9878  52.2610  1.00270514 47103
SES-6                   
1 39172U 13026A   26161.26063959 -.00000244  00000+0  00000+0 0  9999
2 39172   0.0189 330.4515 0002580 123.5508 217.9556  1.00271889 47655
IRNSS-1A                
1 39199U 13034A   26142.85947303  .00000059  00000+0  00000+0 0  9998
2 39199  35.6649  64.2334 0016618 185.3754 355.4646  1.00280263 47111
MUOS-2                  
1 39206U 13036A   26160.61279275  .00000002  00000+0  00000+0 0  9997
2 39206   4.9809  45.5245 0050683 177.8763  67.1233  1.00271899 47110
ALPHASAT                
1 39215U 13038A   26160.06160909  .00000149  00000+0  00000+0 0  9993
2 39215   2.9977   1.3684 0001915  86.6359 216.4790  1.00271496 43939
INSAT-3D                
1 39216U 13038B   26161.29431589 -.00000322  00000+0  00000+0 0  9999
2 39216   1.9072  82.6267 0000703 315.3416  96.1628  1.00272755 47019
WGS F6 (USA 244)        
1 39222U 13041A   26161.02802456  .00000106  00000+0  00000+0 0  9995
2 39222   0.0029  70.8857 0000176 220.3287 202.0978  1.00269941 45991
ES'HAIL 1               
1 39233U 13044A   26161.27363966  .00000161  00000+0  00000+0 0  9996
2 39233   0.0498   8.4886 0002229  67.2435 306.8838  1.00271544 46559
